CUTE-1 (CO-55)          
1 27844U 03031E   24046.90013902  .00000787  00000+0  36826-3 0  9991
2 27844  98.6799  55.6356 0010536 135.1331 225.0700 14.23080963 70398
CUBESAT XI-IV (CO-57)   
1 27848U 03031J   24046.92805631  .00000674  00000+0  32119-3 0  9991
2 27848  98.6832  55.9730 0010195 149.6480 210.5290 14.22549202 70157
CUBESAT XI-V            
1 28895U 05043F   24046.83450354  .00003402  00000+0  61595-3 0  9999
2 28895  98.1803 182.7088 0016399  27.4664 332.7404 14.66905778976518
CUTE-1.7+APD II (CO-65) 
1 32785U 08021C   24046.86921583  .00008656  00000+0  79598-3 0  9999
2 32785  97.7411  13.5018 0012259  23.2253 336.9519 14.94960459857197
AAUSAT-II               
1 32788U 08021F   24046.93190063  .00023402  00000+0  13846-2 0  9990
2 32788  97.5866  27.4763 0004271 217.2309 142.8625 15.11436288859827
SEEDS II (CO-66)        
1 32791U 08021J   24046.91564289  .00012708  00000+0  10008-2 0  9991
2 32791  97.6832  19.1327 0006916 355.8885   4.2281 15.00913132858166
SWISSCUBE               
1 35932U 09051B   24046.93748893  .00002348  00000+0  51529-3 0  9995
2 35932  98.4890 287.7372 0007151 345.5212  14.5781 14.58556820764731
BEESAT-1                
1 35933U 09051C   24046.92280379  .00002011  00000+0  44479-3 0  9998
2 35933  98.4818 288.7836 0005699   1.2508 358.8704 14.58357939764804
ITUPSAT1                
1 35935U 09051E   24046.92019302  .00001854  00000+0  41979-3 0  9992
2 35935  98.4922 288.6262 0008079   3.2811 356.8438 14.57350431764450
TISAT 1                 
1 36799U 10035E   24046.63252402  .00011120  00000+0  89883-3 0  9996
2 36799  98.1090 290.9100 0006565 257.8996 102.1491 14.99966163738877
M-CUBED & EXP-1 PRIME   
1 37855U 11061F   24046.82008165  .00074081  00000+0  12644-2 0  9991
2 37855 101.6843 155.3258 0078295   1.9474 358.2050 15.47613988673942
AEROCUBE 4.5A           
1 38767U 12048K   24046.95189394  .00018308  00000+0  11127-2 0  9993
2 38767  64.6638 345.8738 0103680  63.3894 297.7801 15.06114536242032
AEROCUBE 4.5B           
1 38768U 12048L   24046.93933127  .00027862  00000+0  12713-2 0  9990
2 38768  64.6595 279.1991 0084101  52.6744 308.2005 15.17373859242835
STRAND-1                
1 39090U 13009E   24046.78180329  .00000858  00000+0  31067-3 0  9998
2 39090  98.3815 238.4319 0007826 256.9058 103.1255 14.35894453574677
BRITE-AUSTRIA           
1 39091U 13009F   24046.80716549  .00000560  00000+0  20857-3 0  9996
2 39091  98.3852 237.7166 0009251 264.6897  95.3233 14.35685224574708
NEE-01 PEGASO           
1 39151U 13018B   24046.86362147  .00005439  00000+0  64866-3 0  9998
2 39151  98.0215 163.0096 0016476  79.6050 280.7020 14.84603560583813
ESTCUBE 1               
1 39161U 13021C   24046.70443891  .00003735  00000+0  55459-3 0  9997
2 39161  97.8432 116.9007 0007803 264.7850  95.2469 14.75589873579024
POPACS 1                
1 39268U 13055D   24046.93134568  .00037295  00000+0  71092-3 0  9994
2 39268  80.9838 290.4910 0444045 122.9158 241.5590 14.83088304542365
POPACS 2                
1 39269U 13055E   24046.89815526  .00031224  00000+0  75197-3 0  9996
2 39269  81.0067  11.6732 0570114 334.8954  22.5470 14.51949100537826
POPACS 3                
1 39270U 13055F   24046.29903923  .00010154  00000+0  28194-3 0  9995
2 39270  81.0079  59.1037 0642581 107.8806 259.3500 14.33583780515332
ZACUBE-1 (TSHEPISOSAT)  
1 39417U 13066B   24046.83068300  .00007564  00000+0  81883-3 0  9996
2 39417  97.7198   5.8216 0051521 203.0110 156.8799 14.87545480553385
WNISAT-1                
1 39423U 13066H   24046.81945266  .00001400  00000+0  27667-3 0  9999
2 39423  97.6779 251.0336 0171868  33.7416 327.4582 14.54834093542646
TRITON-1                
1 39427U 13066M   24046.88376196  .00004371  00000+0  63143-3 0  9999
2 39427  97.8426 328.9284 0106198 115.2459 245.9801 14.72870168548203
DELFI-N3XT              
1 39428U 13066N   24046.71836797  .00008335  00000+0  11126-2 0  9997
2 39428  97.8390 328.5033 0106029 124.3644 236.7651 14.75912128548018
GOMX-1                  
1 39430U 13066Q   24046.89009170  .00004495  00000+0  76337-3 0  9995
2 39430  97.7507 288.6254 0140708 281.5407  77.0027 14.63293703544978
CUBEBUG-2 (LO-74)       
1 39440U 13066AA  24046.81511478  .00008364  00000+0  10193-2 0  9993
2 39440  97.8012 353.3661 0070680 314.8969  44.6519 14.81842646550202
NEE-02 KRYSAOR          
1 39441U 13066AB  24046.76505002  .00006077  00000+0  78930-3 0  9997
2 39441  97.8113 349.6052 0075132 335.0126  24.7455 14.79098230549838
FUNCUBE-1 (AO-73)       
1 39444U 13066AE  24046.87004077  .00007264  00000+0  74301-3 0  9995
2 39444  97.7053   8.7182 0049683 185.1408 174.9306 14.89908936551884
UWE-3                   
1 39446U 13066AG  24046.84223356  .00006814  00000+0  78824-3 0  9991
2 39446  97.7673 359.4592 0060594 261.1193  98.3159 14.84523572550546
BRITE-CA1 (TORONTO)     
1 40020U 14033L   24046.90375638  .00002829  00000+0  46583-3 0  9993
2 40020  97.8553 188.5289 0084985 122.1278 238.8211 14.68894357516915
DUCHIFAT-1              
1 40021U 14033M   24046.91127469  .00014639  00000+0  10795-2 0  9999
2 40021  98.0813  24.9407 0014889 144.3081 215.9142 15.03322587525737
NANOSATC-BR1            
1 40024U 14033Q   24046.87653254  .00012092  00000+0  96728-3 0  9995
2 40024  98.0620  14.2987 0009566 197.6221 162.4671 15.00324601524899
QB50P1                  
1 40025U 14033R   24046.82255626  .00010935  00000+0  94510-3 0  9993
2 40025  98.0275   3.9031 0009943 192.7503 167.3468 14.97356088524559
QB50P2                  
1 40032U 14033Y   24046.82780082  .00009107  00000+0  80995-3 0  9991
2 40032  97.9946 356.3703 0009281 193.6161 166.4810 14.96294215524368
PERSEUS-M2              
1 40037U 14033AD  24046.80894683  .00004145  00000+0  43863-3 0  9997
2 40037  97.9206 337.2995 0012088 235.2717 124.7362 14.89674886523605
PERSEUS-M1              
1 40039U 14033AF  24046.74661920  .00004473  00000+0  47605-3 0  9990
2 40039  97.9030 333.6328 0011860 234.6338 125.3771 14.89405076523458
POLYITAN-1              
1 40042U 14033AJ  24046.87884509  .00012560  00000+0  10330-2 0  9998
2 40042  98.0370   6.7137 0012448 188.9386 171.1617 14.99220924524495
TIGRISAT                
1 40043U 14033AK  24046.90810078  .00003588  00000+0  49210-3 0  9993
2 40043  97.6801 215.1036 0056030 342.8841  17.0479 14.77938974519390
AEROCUBE 6A             
1 40045U 14033AM  24046.75711883  .00008344  00000+0  10459-2 0  9999
2 40045  97.6615 225.3025 0051762 324.1186  35.6555 14.81493855519657
AEROCUBE 6B             
1 40046U 14033AN  24046.72815007  .00008115  00000+0  99859-3 0  9998
2 40046  97.6569 223.8816 0050305 320.2291  39.5239 14.82323672519699
UKUBE-1                 
1 40074U 14037F   24046.72775975  .00010064  00000+0  10095-2 0  9992
2 40074  98.3400 329.4046 0005706 105.9479 254.2367 14.91529252520514
BRITE-PL2 (HEWELIUSZ)   
1 40119U 14049B   24046.79757200  .00003854  00000+0  42506-3 0  9995
2 40119  97.8784 147.1576 0017111  50.1582 310.1136 14.87979207514372
GRIFEX                  
1 40379U 15003D   24046.79643035  .01114940  71400-3  14733-2 0  9990
2 40379  99.0712  55.5440 0021259 130.8125 229.5000 16.06449678501325
CP10 (EXOCUBE)          
1 40380U 15003E   24046.94902907  .00073824  00000+0  10203-2 0  9991
2 40380  99.1039  37.8849 0062088 180.7115 179.4055 15.54595780500278
AEROCUBE 5C             
1 40965U 15058B   24046.25933940  .00010186  00000+0  98954-3 0  9997
2 40965  64.7730  18.6267 0181570 346.7373  12.8992 14.81414794238825
AEROCUBE 7              
1 40966U 15058C   24046.95355750  .00013013  00000+0  12242-2 0  9999
2 40966  64.7713  11.2858 0177564 346.2028  13.4258 14.82927527238974
VELOX-II                
1 41171U 15077F   24046.92492698  .00071191  00000+0  14093-2 0  9996
2 41171  14.9898 289.6584 0003629  60.8239 299.2449 15.45214509452708
HORYU-4                 
1 41340U 16012D   24046.69212356  .00014804  00000+0  81388-3 0  9999
2 41340  31.0038  51.6841 0011207 173.6255 186.4528 15.12842229439561
E-ST@R-II               
1 41459U 16025D   24046.86373590  .00143420  00000+0  17230-2 0  9992
2 41459  98.1472 281.7676 0057152 318.4137  41.2776 15.58392433430423
RAVAN                   
1 41849U 16067B   24046.72301934  .00014916  00000+0  89452-3 0  9992
2 41849  98.0551 217.5782 0014969  85.3522 274.9415 15.10970857397477
CELTEE 1                
1 41850U 16067C   24046.94578621  .00008729  00000+0  62584-3 0  9999
2 41850  98.0868 210.4297 0000220 205.1538 154.9676 15.04616624397037
OPTICUBE 04             
1 41851U 16067D   24046.91990294  .00005964  00000+0  46361-3 0  9994
2 41851  98.0601 206.9484 0017087 103.3395 256.9734 15.01583594396886
AEROCUBE 8D             
1 41852U 16067E   24046.68717675  .00009474  00000+0  66310-3 0  9995
2 41852  98.0924 209.6307 0005525 149.7587 210.3957 15.05483902396955
AEROCUBE 8C             
1 41853U 16067F   24046.89491763  .00009595  00000+0  67218-3 0  9998
2 41853  98.0741 208.7411 0009585  89.9413 270.2911 15.05420513396978
PROMETHEUS 2-1          
1 41854U 16067G   24046.93046152  .00019653  00000+0  11384-2 0  9990
2 41854  98.0901 214.3356 0014446 111.3889 248.8883 15.12169041397230
PROMETHEUS 2-3          
1 41855U 16067H   24046.92595069  .00019729  00000+0  11440-2 0  9993
2 41855  98.0825 213.9392 0012272 120.5863 239.6578 15.12155418397232
DIDO-2                  
1 42000U 17008BE  24046.59439088  .00072920  00000+0  98337-3 0  9996
2 42000  97.1627 105.7752 0003693 216.8461 143.2542 15.57563795389561
AALTO-1                 
1 42775U 17036L   24046.85262440  .00053856  00000+0  95124-3 0  9999
2 42775  97.1257  76.6317 0004842 306.1469  53.9335 15.50176846370062
URSA MAIOR              
1 42776U 17036M   24046.83920121  .00074415  00000+0  10532-2 0  9998
2 42776  97.1238  79.1767 0003652 291.5619  68.5247 15.56252828370213
